[{"OBJECT_NAME":"TIANQI-15","OBJECT_ID":"2021-065B","EPOCH":"2026-03-09T19:28:45.472224","MEAN_MOTION":15.09508085,"ECCENTRICITY":0.00070671,"INCLINATION":34.9979,"RA_OF_ASC_NODE":108.242,"ARG_OF_PERICENTER":250.7766,"MEAN_ANOMALY":109.218,"EPHEMERIS_TYPE":0,"CLASSIFICATION_TYPE":"U","NORAD_CAT_ID":49027,"ELEMENT_SET_NO":999,"REV_AT_EPOCH":25424,"BSTAR":0.00041179088,"MEAN_MOTION_DOT":6.722e-5,"MEAN_MOTION_DDOT":0},{"OBJECT_NAME":"STARLINK-5078","OBJECT_ID":"2022-177AP","EPOCH":"2026-03-09T22:00:01.999584","MEAN_MOTION":15.07993689,"ECCENTRICITY":6.649e-5,"INCLINATION":43.0006,"RA_OF_ASC_NODE":119.0603,"ARG_OF_PERICENTER":249.4798,"MEAN_ANOMALY":331.8571,"EPHEMERIS_TYPE":0,"CLASSIFICATION_TYPE":"U","NORAD_CAT_ID":54857,"ELEMENT_SET_NO":999,"REV_AT_EPOCH":567,"BSTAR":0.00361092,"MEAN_MOTION_DOT":0.00056732,"MEAN_MOTION_DDOT":0}]
